{"type": "FeatureCollection", "features": [ {"type": "Feature", "properties": {"norad_id": 54234, "name": "NOAA 21 (JPSS-2)", "group": "weather", "lat": -49.80591747775476, "lon": 89.74454573470868, "alt_km": 835.4871002463942, "timestamp": "2025-12-09T21:34:11.050375+00:00", "meta": {"OBJECT_NAME": "NOAA 21 (JPSS-2)", "OBJECT_ID": "2022-150A", "EPOCH": "2025-12-09T13:43:13.586592", "MEAN_MOTION": 14.19522943, "ECCENTRICITY": 0.00023394, "INCLINATION": 98.7458, "RA_OF_ASC_NODE": 279.9195, "ARG_OF_PERICENTER": 44.1938, "MEAN_ANOMALY": 315.9425, "EPHEMERIS_TYPE": 0, "CLASSIFICATION_TYPE": "U", "NORAD_CAT_ID": 54234, "ELEMENT_SET_NO": 999, "REV_AT_EPOCH": 15964, "BSTAR": 0.00011991417, "MEAN_MOTION_DOT": 2.09e-06, "MEAN_MOTION_DDOT": 0}, "tle": {"line1": "1 54234U 22150A   25343.57168503  .00000209  00000+0  11991-3 0  9994", "line2": "2 54234  98.7458 279.9195 0002339  44.1938 315.9425 14.19522943159643"}}, "geometry": {"type": "Point", "coordinates": [89.74454573470868, -49.80591747775476]}}, {"type": "Feature", "properties": {"norad_id": 54743, "name": "METEOSAT-12 (MTG-I1)", "group": "weather", "lat": 0.1576513331353771, "lon": 42.2212124610073, "alt_km": 35790.22773986241, "timestamp": "2025-12-09T21:34:11.050387+00:00", "meta": {"OBJECT_NAME": "METEOSAT-12 (MTG-I1)", "OBJECT_ID": "2022-170C", "EPOCH": "2025-12-09T06:50:38.880672", "MEAN_MOTION": 1.00275177, "ECCENTRICITY": 0.00014445, "INCLINATION": 0.7267, "RA_OF_ASC_NODE": 31.0604, "ARG_OF_PERICENTER": 223.8448, "MEAN_ANOMALY": 285.8144, "EPHEMERIS_TYPE": 0, "CLASSIFICATION_TYPE": "U", "NORAD_CAT_ID": 54743, "ELEMENT_SET_NO": 999, "REV_AT_EPOCH": 1107, "BSTAR": 0, "MEAN_MOTION_DOT": -4e-08, "MEAN_MOTION_DDOT": 0}, "tle": {"line1": "1 54743U 22170C   25343.28517223 -.00000004  00000+0  00000+0 0  9995", "line2": "2 54743   0.7267  31.0604 0001444 223.8448 285.8144  1.00275177 11076"}}, "geometry": {"type": "Point", "coordinates": [42.2212124610073, 0.1576513331353771]}}, {"type": "Feature", "properties": {"norad_id": 55973, "name": "TIANMU-1 03", "group": "weather", "lat": -2.7923737603281342, "lon": 146.83996205734323, "alt_km": 446.268531544747, "timestamp": "2025-12-09T21:34:11.050398+00:00", "meta": {"OBJECT_NAME": "TIANMU-1 03", "OBJECT_ID": "2023-039A", "EPOCH": "2025-12-09T13:47:19.065408", "MEAN_MOTION": 15.40777845, "ECCENTRICITY": 0.00044964, "INCLINATION": 97.5112, "RA_OF_ASC_NODE": 146.1381, "ARG_OF_PERICENTER": 69.9606, "MEAN_ANOMALY": 290.2123, "EPHEMERIS_TYPE": 0, "CLASSIFICATION_TYPE": "U", "NORAD_CAT_ID": 55973, "ELEMENT_SET_NO": 999, "REV_AT_EPOCH": 15157, "BSTAR": 0.00050826743, "MEAN_MOTION_DOT": 0.00020754, "MEAN_MOTION_DDOT": 0}, "tle": {"line1": "1 55973U 23039A   25343.57452622  .00020754  00000+0  50827-3 0  9998", "line2": "2 55973  97.5112 146.1381 0004496  69.9606 290.2123 15.40777845151575"}}, "geometry": {"type": "Point", "coordinates": [146.83996205734323, -2.7923737603281342]}}, {"type": "Feature", "properties": {"norad_id": 55974, "name": "TIANMU-1 04", "group": "weather", "lat": 70.57245632875485, "lon": -12.388796685828463, "alt_km": 433.42203642033746, "timestamp": "2025-12-09T21:34:11.050408+00:00", "meta": {"OBJECT_NAME": "TIANMU-1 04", "OBJECT_ID": "2023-039B", "EPOCH": "2025-12-09T14:52:12.675360", "MEAN_MOTION": 15.41113803, "ECCENTRICITY": 0.00051753, "INCLINATION": 97.5044, "RA_OF_ASC_NODE": 145.3767, "ARG_OF_PERICENTER": 65.364, "MEAN_ANOMALY": 294.8145, "EPHEMERIS_TYPE": 0, "CLASSIFICATION_TYPE": "U", "NORAD_CAT_ID": 55974, "ELEMENT_SET_NO": 999, "REV_AT_EPOCH": 15158, "BSTAR": 0.0005068314, "MEAN_MOTION_DOT": 0.0002093, "MEAN_MOTION_DDOT": 0}, "tle": {"line1": "1 55974U 23039B   25343.61959115  .00020930  00000+0  50683-3 0  9999", "line2": "2 55974  97.5044 145.3767 0005175  65.3640 294.8145 15.41113803151586"}}, "geometry": {"type": "Point", "coordinates": [-12.388796685828463, 70.57245632875485]}}, {"type": "Feature", "properties": {"norad_id": 55975, "name": "TIANMU-1 05", "group": "weather", "lat": 35.85360834458437, "lon": -28.374491785307967, "alt_km": 439.95155934933246, "timestamp": "2025-12-09T21:34:11.050418+00:00", "meta": {"OBJECT_NAME": "TIANMU-1 05", "OBJECT_ID": "2023-039C", "EPOCH": "2025-12-09T14:42:49.388832", "MEAN_MOTION": 15.40736895, "ECCENTRICITY": 0.00043735, "INCLINATION": 97.5091, "RA_OF_ASC_NODE": 145.8622, "ARG_OF_PERICENTER": 86.5621, "MEAN_ANOMALY": 273.6125, "EPHEMERIS_TYPE": 0, "CLASSIFICATION_TYPE": "U", "NORAD_CAT_ID": 55975, "ELEMENT_SET_NO": 999, "REV_AT_EPOCH": 15156, "BSTAR": 0.00050481475, "MEAN_MOTION_DOT": 0.00020584, "MEAN_MOTION_DDOT": 0}, "tle": {"line1": "1 55975U 23039C   25343.61307163  .00020584  00000+0  50481-3 0  9991", "line2": "2 55975  97.5091 145.8622 0004373  86.5621 273.6125 15.40736895151569"}}, "geometry": {"type": "Point", "coordinates": [-28.374491785307967, 35.85360834458437]}}, {"type": "Feature", "properties": {"norad_id": 55976, "name": "TIANMU-1 06", "group": "weather", "lat": 80.79744582743238, "lon": 21.137970768543244, "alt_km": 432.1119372241528, "timestamp": "2025-12-09T21:34:11.050429+00:00", "meta": {"OBJECT_NAME": "TIANMU-1 06", "OBJECT_ID": "2023-039D", "EPOCH": "2025-12-09T14:55:29.696736", "MEAN_MOTION": 15.41166284, "ECCENTRICITY": 0.00047019, "INCLINATION": 97.5102, "RA_OF_ASC_NODE": 146.3338, "ARG_OF_PERICENTER": 82.125, "MEAN_ANOMALY": 278.053, "EPHEMERIS_TYPE": 0, "CLASSIFICATION_TYPE": "U", "NORAD_CAT_ID": 55976, "ELEMENT_SET_NO": 999, "REV_AT_EPOCH": 15158, "BSTAR": 0.00050481489, "MEAN_MOTION_DOT": 0.0002088, "MEAN_MOTION_DDOT": 0}, "tle": {"line1": "1 55976U 23039D   25343.62187149  .00020880  00000+0  50481-3 0  9992", "line2": "2 55976  97.5102 146.3338 0004701  82.1250 278.0530 15.41166284151589"}}, "geometry": {"type": "Point", "coordinates": [21.137970768543244, 80.79744582743238]}}, {"type": "Feature", "properties": {"norad_id": 56232, "name": "FENGYUN 3G", "group": "weather", "lat": 19.867827696627508, "lon": -100.21994102073182, "alt_km": 406.4912917369347, "timestamp": "2025-12-09T21:34:11.050439+00:00", "meta": {"OBJECT_NAME": "FENGYUN 3G", "OBJECT_ID": "2023-055A", "EPOCH": "2025-12-09T10:38:58.874208", "MEAN_MOTION": 15.53340632, "ECCENTRICITY": 0.00092702, "INCLINATION": 49.9935, "RA_OF_ASC_NODE": 244.4601, "ARG_OF_PERICENTER": 132.8049, "MEAN_ANOMALY": 227.3699, "EPHEMERIS_TYPE": 0, "CLASSIFICATION_TYPE": "U", "NORAD_CAT_ID": 56232, "ELEMENT_SET_NO": 999, "REV_AT_EPOCH": 15051, "BSTAR": 0.00062055096, "MEAN_MOTION_DOT": 0.00039768, "MEAN_MOTION_DDOT": 0}, "tle": {"line1": "1 56232U 23055A   25343.44373697  .00039768  00000+0  62055-3 0  9996", "line2": "2 56232  49.9935 244.4601 0009270 132.8049 227.3699 15.53340632150517"}}, "geometry": {"type": "Point", "coordinates": [-100.21994102073182, 19.867827696627508]}}, {"type": "Feature", "properties": {"norad_id": 57166, "name": "METEOR-M2 3", "group": "weather", "lat": 81.27462840508147, "lon": -60.42110371884695, "alt_km": 803.5278162525528, "timestamp": "2025-12-09T21:34:11.050449+00:00", "meta": {"OBJECT_NAME": "METEOR-M2 3", "OBJECT_ID": "2023-091A", "EPOCH": "2025-12-09T14:23:53.228832", "MEAN_MOTION": 14.24025591, "ECCENTRICITY": 0.000409, "INCLINATION": 98.6382, "RA_OF_ASC_NODE": 37.194, "ARG_OF_PERICENTER": 17.4664, "MEAN_ANOMALY": 342.6655, "EPHEMERIS_TYPE": 0, "CLASSIFICATION_TYPE": "U", "NORAD_CAT_ID": 57166, "ELEMENT_SET_NO": 999, "REV_AT_EPOCH": 12753, "BSTAR": 4.1688886e-05, "MEAN_MOTION_DOT": 5.2e-07, "MEAN_MOTION_DDOT": 0}, "tle": {"line1": "1 57166U 23091A   25343.59992163  .00000052  00000+0  41689-4 0  9999", "line2": "2 57166  98.6382  37.1940 0004090  17.4664 342.6655 14.24025591127530"}}, "geometry": {"type": "Point", "coordinates": [-60.42110371884695, 81.27462840508147]}}, {"type": "Feature", "properties": {"norad_id": 57399, "name": "TIANMU-1 07", "group": "weather", "lat": -62.95478189036363, "lon": 48.32848139555848, "alt_km": 492.4273674022688, "timestamp": "2025-12-09T21:34:11.050472+00:00", "meta": {"OBJECT_NAME": "TIANMU-1 07", "OBJECT_ID": "2023-101A", "EPOCH": "2025-12-09T13:59:26.223360", "MEAN_MOTION": 15.27999542, "ECCENTRICITY": 0.00056427, "INCLINATION": 97.2877, "RA_OF_ASC_NODE": 33.5022, "ARG_OF_PERICENTER": 89.5502, "MEAN_ANOMALY": 270.6384, "EPHEMERIS_TYPE": 0, "CLASSIFICATION_TYPE": "U", "NORAD_CAT_ID": 57399, "ELEMENT_SET_NO": 999, "REV_AT_EPOCH": 13267, "BSTAR": 0.00038854699, "MEAN_MOTION_DOT": 0.0001055, "MEAN_MOTION_DDOT": 0}, "tle": {"line1": "1 57399U 23101A   25343.58294240  .00010550  00000+0  38855-3 0  9993", "line2": "2 57399  97.2877  33.5022 0005642  89.5502 270.6384 15.27999542132678"}}, "geometry": {"type": "Point", "coordinates": [48.32848139555848, -62.95478189036363]}}, {"type": "Feature", "properties": {"norad_id": 57400, "name": "TIANMU-1 08", "group": "weather", "lat": 60.95132388811873, "lon": -133.07153576195174, "alt_km": 471.3118475290503, "timestamp": "2025-12-09T21:34:11.050486+00:00", "meta": {"OBJECT_NAME": "TIANMU-1 08", "OBJECT_ID": "2023-101B", "EPOCH": "2025-12-09T14:46:05.516832", "MEAN_MOTION": 15.27984681, "ECCENTRICITY": 0.00075408, "INCLINATION": 97.2865, "RA_OF_ASC_NODE": 33.3324, "ARG_OF_PERICENTER": 92.4317, "MEAN_ANOMALY": 267.7786, "EPHEMERIS_TYPE": 0, "CLASSIFICATION_TYPE": "U", "NORAD_CAT_ID": 57400, "ELEMENT_SET_NO": 999, "REV_AT_EPOCH": 13267, "BSTAR": 0.00040573737, "MEAN_MOTION_DOT": 0.00011019, "MEAN_MOTION_DDOT": 0}, "tle": {"line1": "1 57400U 23101B   25343.61534163  .00011019  00000+0  40574-3 0  9993", "line2": "2 57400  97.2865  33.3324 0007540  92.4317 267.7786 15.27984681132678"}}, "geometry": {"type": "Point", "coordinates": [-133.07153576195174, 60.95132388811873]}}]}